( ========================================================== )
( Makera Z1 -- holes + outline cutout )
( Generated by kicad-gcode-plugin from F150_light_ctl.kicad_pcb )
( Origin = KiCad drill/place (aux) origin. Set XY once; do not move it. )
( TOP-DOWN -- component side up. )
( Job spans X -7.31 to 9.39, Y -11.85 to 3.35 mm. )
( Cut depth 1.80mm (board 1.60 + 0.20 breakthrough) -- USE A SACRIFICIAL LAYER. )

( TOOLS, in program order: )
(   T1     0.80 mm  CORN/FISHTAIL END MILL     5 hole(s), every size with this one bit, milled helically )
(   T2     1.20 mm  CORN/FISHTAIL END MILL     outline 62.8mm, 1 path(s), 4 tab(s) of 1.00mm at Z-1.00 )

( SETUP: install the first tool, Change tool to register it, )
(   set XY origin, Auto Z Probe ON, then Run. )
( ========================================================== )

G21      ( mm )
G90      ( absolute )
G94      ( units per minute )
G54      ( work coordinate system )


( ---- TOOL SETUP: 0.80mm CORN/FISHTAIL END MILL (NOT a twist drill) (T1) ---- )
(MSG, Install T1: 0.80mm CORN/FISHTAIL END MILL (NOT a twist drill))
M6 T1      ( manual change + re-zero on setter )
M3 S13000      ( spindle on )
G04 P1.5      ( spin up )
G00 Z15

( -- through-holes -- )
( 1.00mm pth hole at X5.080 Y-0.000 )
G00 X5.18 Y0
G00 Z1
G01 Z0 F30
G02 X4.98 Y0 Z-0.075 I-0.1 J0 F60
G02 X5.18 Y0 Z-0.15 I0.1 J0 F60
G02 X4.98 Y0 Z-0.225 I-0.1 J0 F60
G02 X5.18 Y0 Z-0.3 I0.1 J0 F60
G02 X4.98 Y0 Z-0.375 I-0.1 J0 F60
G02 X5.18 Y0 Z-0.45 I0.1 J0 F60
G02 X4.98 Y0 Z-0.525 I-0.1 J0 F60
G02 X5.18 Y0 Z-0.6 I0.1 J0 F60
G02 X4.98 Y0 Z-0.675 I-0.1 J0 F60
G02 X5.18 Y0 Z-0.75 I0.1 J0 F60
G02 X4.98 Y0 Z-0.825 I-0.1 J0 F60
G02 X5.18 Y0 Z-0.9 I0.1 J0 F60
G02 X4.98 Y0 Z-0.975 I-0.1 J0 F60
G02 X5.18 Y0 Z-1.05 I0.1 J0 F60
G02 X4.98 Y0 Z-1.125 I-0.1 J0 F60
G02 X5.18 Y0 Z-1.2 I0.1 J0 F60
G02 X4.98 Y0 Z-1.275 I-0.1 J0 F60
G02 X5.18 Y0 Z-1.35 I0.1 J0 F60
G02 X4.98 Y0 Z-1.425 I-0.1 J0 F60
G02 X5.18 Y0 Z-1.5 I0.1 J0 F60
G02 X4.98 Y0 Z-1.575 I-0.1 J0 F60
G02 X5.18 Y0 Z-1.65 I0.1 J0 F60
G02 X4.98 Y0 Z-1.725 I-0.1 J0 F60
G02 X5.18 Y0 Z-1.8 I0.1 J0 F60
G02 X4.98 Y0 I-0.1 J0 F60
G02 X5.18 Y0 I0.1 J0 F60
G00 Z15
( 1.00mm pth hole at X2.540 Y-0.000 )
G00 X2.64 Y0
G00 Z1
G01 Z0 F30
G02 X2.44 Y0 Z-0.075 I-0.1 J0 F60
G02 X2.64 Y0 Z-0.15 I0.1 J0 F60
G02 X2.44 Y0 Z-0.225 I-0.1 J0 F60
G02 X2.64 Y0 Z-0.3 I0.1 J0 F60
G02 X2.44 Y0 Z-0.375 I-0.1 J0 F60
G02 X2.64 Y0 Z-0.45 I0.1 J0 F60
G02 X2.44 Y0 Z-0.525 I-0.1 J0 F60
G02 X2.64 Y0 Z-0.6 I0.1 J0 F60
G02 X2.44 Y0 Z-0.675 I-0.1 J0 F60
G02 X2.64 Y0 Z-0.75 I0.1 J0 F60
G02 X2.44 Y0 Z-0.825 I-0.1 J0 F60
G02 X2.64 Y0 Z-0.9 I0.1 J0 F60
G02 X2.44 Y0 Z-0.975 I-0.1 J0 F60
G02 X2.64 Y0 Z-1.05 I0.1 J0 F60
G02 X2.44 Y0 Z-1.125 I-0.1 J0 F60
G02 X2.64 Y0 Z-1.2 I0.1 J0 F60
G02 X2.44 Y0 Z-1.275 I-0.1 J0 F60
G02 X2.64 Y0 Z-1.35 I0.1 J0 F60
G02 X2.44 Y0 Z-1.425 I-0.1 J0 F60
G02 X2.64 Y0 Z-1.5 I0.1 J0 F60
G02 X2.44 Y0 Z-1.575 I-0.1 J0 F60
G02 X2.64 Y0 Z-1.65 I0.1 J0 F60
G02 X2.44 Y0 Z-1.725 I-0.1 J0 F60
G02 X2.64 Y0 Z-1.8 I0.1 J0 F60
G02 X2.44 Y0 I-0.1 J0 F60
G02 X2.64 Y0 I0.1 J0 F60
G00 Z15
( 1.00mm pth hole at X0.000 Y-0.000 )
G00 X0.1 Y0
G00 Z1
G01 Z0 F30
G02 X-0.1 Y0 Z-0.075 I-0.1 J0 F60
G02 X0.1 Y0 Z-0.15 I0.1 J0 F60
G02 X-0.1 Y0 Z-0.225 I-0.1 J0 F60
G02 X0.1 Y0 Z-0.3 I0.1 J0 F60
G02 X-0.1 Y0 Z-0.375 I-0.1 J0 F60
G02 X0.1 Y0 Z-0.45 I0.1 J0 F60
G02 X-0.1 Y0 Z-0.525 I-0.1 J0 F60
G02 X0.1 Y0 Z-0.6 I0.1 J0 F60
G02 X-0.1 Y0 Z-0.675 I-0.1 J0 F60
G02 X0.1 Y0 Z-0.75 I0.1 J0 F60
G02 X-0.1 Y0 Z-0.825 I-0.1 J0 F60
G02 X0.1 Y0 Z-0.9 I0.1 J0 F60
G02 X-0.1 Y0 Z-0.975 I-0.1 J0 F60
G02 X0.1 Y0 Z-1.05 I0.1 J0 F60
G02 X-0.1 Y0 Z-1.125 I-0.1 J0 F60
G02 X0.1 Y0 Z-1.2 I0.1 J0 F60
G02 X-0.1 Y0 Z-1.275 I-0.1 J0 F60
G02 X0.1 Y0 Z-1.35 I0.1 J0 F60
G02 X-0.1 Y0 Z-1.425 I-0.1 J0 F60
G02 X0.1 Y0 Z-1.5 I0.1 J0 F60
G02 X-0.1 Y0 Z-1.575 I-0.1 J0 F60
G02 X0.1 Y0 Z-1.65 I0.1 J0 F60
G02 X-0.1 Y0 Z-1.725 I-0.1 J0 F60
G02 X0.1 Y0 Z-1.8 I0.1 J0 F60
G02 X-0.1 Y0 I-0.1 J0 F60
G02 X0.1 Y0 I0.1 J0 F60
G00 Z15
( 3.50mm npth hole at X-4.460 Y-8.500 )
G00 X-3.11 Y-8.5
G00 Z1
G01 Z0 F30
G02 X-5.81 Y-8.5 Z-0.075 I-1.35 J0 F60
G02 X-3.11 Y-8.5 Z-0.15 I1.35 J0 F60
G02 X-5.81 Y-8.5 Z-0.225 I-1.35 J0 F60
G02 X-3.11 Y-8.5 Z-0.3 I1.35 J0 F60
G02 X-5.81 Y-8.5 Z-0.375 I-1.35 J0 F60
G02 X-3.11 Y-8.5 Z-0.45 I1.35 J0 F60
G02 X-5.81 Y-8.5 Z-0.525 I-1.35 J0 F60
G02 X-3.11 Y-8.5 Z-0.6 I1.35 J0 F60
G02 X-5.81 Y-8.5 Z-0.675 I-1.35 J0 F60
G02 X-3.11 Y-8.5 Z-0.75 I1.35 J0 F60
G02 X-5.81 Y-8.5 Z-0.825 I-1.35 J0 F60
G02 X-3.11 Y-8.5 Z-0.9 I1.35 J0 F60
G02 X-5.81 Y-8.5 Z-0.975 I-1.35 J0 F60
G02 X-3.11 Y-8.5 Z-1.05 I1.35 J0 F60
G02 X-5.81 Y-8.5 Z-1.125 I-1.35 J0 F60
G02 X-3.11 Y-8.5 Z-1.2 I1.35 J0 F60
G02 X-5.81 Y-8.5 Z-1.275 I-1.35 J0 F60
G02 X-3.11 Y-8.5 Z-1.35 I1.35 J0 F60
G02 X-5.81 Y-8.5 Z-1.425 I-1.35 J0 F60
G02 X-3.11 Y-8.5 Z-1.5 I1.35 J0 F60
G02 X-5.81 Y-8.5 Z-1.575 I-1.35 J0 F60
G02 X-3.11 Y-8.5 Z-1.65 I1.35 J0 F60
G02 X-5.81 Y-8.5 Z-1.725 I-1.35 J0 F60
G02 X-3.11 Y-8.5 Z-1.8 I1.35 J0 F60
G02 X-5.81 Y-8.5 I-1.35 J0 F60
G02 X-3.11 Y-8.5 I1.35 J0 F60
G00 Z15
( 3.50mm npth hole at X6.540 Y-8.500 )
G00 X7.89 Y-8.5
G00 Z1
G01 Z0 F30
G02 X5.19 Y-8.5 Z-0.075 I-1.35 J0 F60
G02 X7.89 Y-8.5 Z-0.15 I1.35 J0 F60
G02 X5.19 Y-8.5 Z-0.225 I-1.35 J0 F60
G02 X7.89 Y-8.5 Z-0.3 I1.35 J0 F60
G02 X5.19 Y-8.5 Z-0.375 I-1.35 J0 F60
G02 X7.89 Y-8.5 Z-0.45 I1.35 J0 F60
G02 X5.19 Y-8.5 Z-0.525 I-1.35 J0 F60
G02 X7.89 Y-8.5 Z-0.6 I1.35 J0 F60
G02 X5.19 Y-8.5 Z-0.675 I-1.35 J0 F60
G02 X7.89 Y-8.5 Z-0.75 I1.35 J0 F60
G02 X5.19 Y-8.5 Z-0.825 I-1.35 J0 F60
G02 X7.89 Y-8.5 Z-0.9 I1.35 J0 F60
G02 X5.19 Y-8.5 Z-0.975 I-1.35 J0 F60
G02 X7.89 Y-8.5 Z-1.05 I1.35 J0 F60
G02 X5.19 Y-8.5 Z-1.125 I-1.35 J0 F60
G02 X7.89 Y-8.5 Z-1.2 I1.35 J0 F60
G02 X5.19 Y-8.5 Z-1.275 I-1.35 J0 F60
G02 X7.89 Y-8.5 Z-1.35 I1.35 J0 F60
G02 X5.19 Y-8.5 Z-1.425 I-1.35 J0 F60
G02 X7.89 Y-8.5 Z-1.5 I1.35 J0 F60
G02 X5.19 Y-8.5 Z-1.575 I-1.35 J0 F60
G02 X7.89 Y-8.5 Z-1.65 I1.35 J0 F60
G02 X5.19 Y-8.5 Z-1.725 I-1.35 J0 F60
G02 X7.89 Y-8.5 Z-1.8 I1.35 J0 F60
G02 X5.19 Y-8.5 I-1.35 J0 F60
G02 X7.89 Y-8.5 I1.35 J0 F60
G00 Z15

( ---- TOOL CHANGE: 1.20mm CORN/FISHTAIL END MILL (NOT a twist drill) (T2) ---- )
G00 Z20
M5      ( spindle stop )
G04 P1.5
(MSG, Install T2: 1.20mm CORN/FISHTAIL END MILL (NOT a twist drill))
M6 T2      ( manual change + re-zero on setter )
M3 S13000      ( spindle on )
G04 P1.5      ( spin up )
G00 Z15

( -- outline cutout (LAST: this frees the part) -- )
( outline path 1 of 1 (62.8mm around) )
G00 X8.9453 Y3.3296
G00 Z1
G01 Z-0.4 F40
G01 X9.09 Y3.2696 F150
G01 X9.2143 Y3.1743 F150
G01 X9.3096 Y3.05 F150
G01 X9.3696 Y2.9053 F150
G01 X9.39 Y2.75 F150
G01 X9.39 Y-11.25 F150
G01 X9.3696 Y-11.4053 F150
G01 X9.3096 Y-11.55 F150
G01 X9.2143 Y-11.6743 F150
G01 X9.09 Y-11.7696 F150
G01 X8.9453 Y-11.8296 F150
G01 X8.79 Y-11.85 F150
G01 X-6.71 Y-11.85 F150
G01 X-6.8653 Y-11.8296 F150
G01 X-7.01 Y-11.7696 F150
G01 X-7.1343 Y-11.6743 F150
G01 X-7.2296 Y-11.55 F150
G01 X-7.2896 Y-11.4053 F150
G01 X-7.31 Y-11.25 F150
G01 X-7.31 Y2.75 F150
G01 X-7.2896 Y2.9053 F150
G01 X-7.2296 Y3.05 F150
G01 X-7.1343 Y3.1743 F150
G01 X-7.01 Y3.2696 F150
G01 X-6.8653 Y3.3296 F150
G01 X-6.71 Y3.35 F150
G01 X8.79 Y3.35 F150
G01 X8.9453 Y3.3296 F150
G01 Z-0.8 F40
G01 X9.09 Y3.2696 F150
G01 X9.2143 Y3.1743 F150
G01 X9.3096 Y3.05 F150
G01 X9.3696 Y2.9053 F150
G01 X9.39 Y2.75 F150
G01 X9.39 Y-11.25 F150
G01 X9.3696 Y-11.4053 F150
G01 X9.3096 Y-11.55 F150
G01 X9.2143 Y-11.6743 F150
G01 X9.09 Y-11.7696 F150
G01 X8.9453 Y-11.8296 F150
G01 X8.79 Y-11.85 F150
G01 X-6.71 Y-11.85 F150
G01 X-6.8653 Y-11.8296 F150
G01 X-7.01 Y-11.7696 F150
G01 X-7.1343 Y-11.6743 F150
G01 X-7.2296 Y-11.55 F150
G01 X-7.2896 Y-11.4053 F150
G01 X-7.31 Y-11.25 F150
G01 X-7.31 Y2.75 F150
G01 X-7.2896 Y2.9053 F150
G01 X-7.2296 Y3.05 F150
G01 X-7.1343 Y3.1743 F150
G01 X-7.01 Y3.2696 F150
G01 X-6.8653 Y3.3296 F150
G01 X-6.71 Y3.35 F150
G01 X8.79 Y3.35 F150
G01 X8.9453 Y3.3296 F150
G01 Z-1.2 F40
G01 X9.09 Y3.2696 F150
G01 X9.2143 Y3.1743 F150
G01 X9.3096 Y3.05 F150
G01 X9.3696 Y2.9053 F150
G01 X9.39 Y2.75 F150
G01 X9.39 Y-3.8117 F150
G01 Z-1 F40
G01 X9.39 Y-4.8117 F150
G01 Z-1.2 F40
G01 X9.39 Y-11.25 F150
G01 X9.3696 Y-11.4053 F150
G01 X9.3096 Y-11.55 F150
G01 X9.2143 Y-11.6743 F150
G01 X9.09 Y-11.7696 F150
G01 X8.9453 Y-11.8296 F150
G01 X8.79 Y-11.85 F150
G01 X1.4783 Y-11.85 F150
G01 Z-1 F40
G01 X0.4783 Y-11.85 F150
G01 Z-1.2 F40
G01 X-6.71 Y-11.85 F150
G01 X-6.8653 Y-11.8296 F150
G01 X-7.01 Y-11.7696 F150
G01 X-7.1343 Y-11.6743 F150
G01 X-7.2296 Y-11.55 F150
G01 X-7.2896 Y-11.4053 F150
G01 X-7.31 Y-11.25 F150
G01 X-7.31 Y-4.6883 F150
G01 Z-1 F40
G01 X-7.31 Y-3.6883 F150
G01 Z-1.2 F40
G01 X-7.31 Y2.75 F150
G01 X-7.2896 Y2.9053 F150
G01 X-7.2296 Y3.05 F150
G01 X-7.1343 Y3.1743 F150
G01 X-7.01 Y3.2696 F150
G01 X-6.8653 Y3.3296 F150
G01 X-6.71 Y3.35 F150
G01 X0.6017 Y3.35 F150
G01 Z-1 F40
G01 X1.6017 Y3.35 F150
G01 Z-1.2 F40
G01 X8.79 Y3.35 F150
G01 X8.9453 Y3.3296 F150
G01 Z-1.6 F40
G01 X9.09 Y3.2696 F150
G01 X9.2143 Y3.1743 F150
G01 X9.3096 Y3.05 F150
G01 X9.3696 Y2.9053 F150
G01 X9.39 Y2.75 F150
G01 X9.39 Y-3.8117 F150
G01 Z-1 F40
G01 X9.39 Y-4.8117 F150
G01 Z-1.6 F40
G01 X9.39 Y-11.25 F150
G01 X9.3696 Y-11.4053 F150
G01 X9.3096 Y-11.55 F150
G01 X9.2143 Y-11.6743 F150
G01 X9.09 Y-11.7696 F150
G01 X8.9453 Y-11.8296 F150
G01 X8.79 Y-11.85 F150
G01 X1.4783 Y-11.85 F150
G01 Z-1 F40
G01 X0.4783 Y-11.85 F150
G01 Z-1.6 F40
G01 X-6.71 Y-11.85 F150
G01 X-6.8653 Y-11.8296 F150
G01 X-7.01 Y-11.7696 F150
G01 X-7.1343 Y-11.6743 F150
G01 X-7.2296 Y-11.55 F150
G01 X-7.2896 Y-11.4053 F150
G01 X-7.31 Y-11.25 F150
G01 X-7.31 Y-4.6883 F150
G01 Z-1 F40
G01 X-7.31 Y-3.6883 F150
G01 Z-1.6 F40
G01 X-7.31 Y2.75 F150
G01 X-7.2896 Y2.9053 F150
G01 X-7.2296 Y3.05 F150
G01 X-7.1343 Y3.1743 F150
G01 X-7.01 Y3.2696 F150
G01 X-6.8653 Y3.3296 F150
G01 X-6.71 Y3.35 F150
G01 X0.6017 Y3.35 F150
G01 Z-1 F40
G01 X1.6017 Y3.35 F150
G01 Z-1.6 F40
G01 X8.79 Y3.35 F150
G01 X8.9453 Y3.3296 F150
G01 Z-1.8 F40
G01 X9.09 Y3.2696 F150
G01 X9.2143 Y3.1743 F150
G01 X9.3096 Y3.05 F150
G01 X9.3696 Y2.9053 F150
G01 X9.39 Y2.75 F150
G01 X9.39 Y-3.8117 F150
G01 Z-1 F40
G01 X9.39 Y-4.8117 F150
G01 Z-1.8 F40
G01 X9.39 Y-11.25 F150
G01 X9.3696 Y-11.4053 F150
G01 X9.3096 Y-11.55 F150
G01 X9.2143 Y-11.6743 F150
G01 X9.09 Y-11.7696 F150
G01 X8.9453 Y-11.8296 F150
G01 X8.79 Y-11.85 F150
G01 X1.4783 Y-11.85 F150
G01 Z-1 F40
G01 X0.4783 Y-11.85 F150
G01 Z-1.8 F40
G01 X-6.71 Y-11.85 F150
G01 X-6.8653 Y-11.8296 F150
G01 X-7.01 Y-11.7696 F150
G01 X-7.1343 Y-11.6743 F150
G01 X-7.2296 Y-11.55 F150
G01 X-7.2896 Y-11.4053 F150
G01 X-7.31 Y-11.25 F150
G01 X-7.31 Y-4.6883 F150
G01 Z-1 F40
G01 X-7.31 Y-3.6883 F150
G01 Z-1.8 F40
G01 X-7.31 Y2.75 F150
G01 X-7.2896 Y2.9053 F150
G01 X-7.2296 Y3.05 F150
G01 X-7.1343 Y3.1743 F150
G01 X-7.01 Y3.2696 F150
G01 X-6.8653 Y3.3296 F150
G01 X-6.71 Y3.35 F150
G01 X0.6017 Y3.35 F150
G01 Z-1 F40
G01 X1.6017 Y3.35 F150
G01 Z-1.8 F40
G01 X8.79 Y3.35 F150
G01 X8.9453 Y3.3296 F150
G00 Z15
M5      ( spindle stop )
G28      ( goto clearance / park -- NOT a homing cycle )
M2      ( program end -- M30 does nothing on a Carvera )
